H1 CPF 01  gfz 2021 11 24 01  8281 terrasarx 
H2 0702601  6201 31698    2021 11 24 00 59 42 2021 11 29 00 00 42   120 1 1  0 0 0
H9
10 0 59542  69822.000000  0   -6260215.224   2070287.261   1987267.221
10 0 59542  69942.000000  0   -6394980.338   2307269.731   1106317.590
10 0 59542  70062.000000  0   -6414127.465   2505259.482    205884.719
10 0 59542  70182.000000  0   -6318090.157   2658790.133   -698174.636
10 0 59542  70302.000000  0   -6109424.850   2763209.300  -1589952.721
10 0 59542  70422.000000  0   -5792746.137   2814796.450  -2453779.242
10 0 59542  70542.000000  0   -5374620.132   2810861.316  -3274504.744
10 0 59542  70662.000000  0   -4863419.550   2749819.459  -4037770.276
10 0 59542  70782.000000  0   -4269146.040   2631244.686  -4730258.683
10 0 59542  70902.000000  0   -3603224.070   2455896.952  -5339922.706
10 0 59542  71022.000000  0   -2878272.976   2225726.339  -5856185.881
10 0 59542  71142.000000  0   -2107863.197   1943853.570  -6270116.360
10 0 59542  71262.000000  0   -1306258.533   1614526.654  -6574570.802
10 0 59542  71382.000000  0    -488152.871   1243055.421  -6764305.262
10 0 59542  71502.000000  0     331594.832    835725.551  -6836055.673
10 0 59542  71622.000000  0    1138223.147    399694.154  -6788588.360
10 0 59542  71742.000000  0    1917328.970    -57133.515  -6622720.552
10 0 59542  71862.000000  0    2655118.902   -526243.985  -6341306.620
10 0 59542  71982.000000  0    3338649.303   -998669.758  -5949194.825
10 0 59542  72102.000000  0    3956051.254  -1465155.782  -5453151.378
10 0 59542  72222.000000  0    4496738.035  -1916336.551  -4861755.665
10 0 59542  72342.000000  0    4951592.017  -2342922.043  -4185262.941
10 0 59542  72462.000000  0    5313125.602  -2735887.214  -3435436.693
10 0 59542  72582.000000  0    5575614.173  -3086661.730  -2625352.317
10 0 59542  72702.000000  0    5735196.836  -3387315.712  -1769173.254
10 0 59542  72822.000000  0    5789941.280  -3630736.838   -881904.382
10 0 59542  72942.000000  0    5739871.641  -3810795.085     20873.528
10 0 59542  73062.000000  0    5586957.016  -3922489.747    923283.153
10 0 59542  73182.000000  0    5335060.913  -3962076.164   1809438.139
10 0 59542  73302.000000  0    4989851.068  -3927165.926   2663732.893
10 0 59542  73422.000000  0    4558672.790  -3816798.746   3471124.923
10 0 59542  73542.000000  0    4050391.020  -3631485.400   4217405.632
10 0 59542  73662.000000  0    3475204.038  -3373221.232   4889454.854
10 0 59542  73782.000000  0    2844431.668  -3045468.231   5475472.726
10 0 59542  73902.000000  0    2170287.008  -2653107.041   5965184.581
10 0 59542  74022.000000  0    1465634.561  -2202361.042   6350016.781
10 0 59542  74142.000000  0     743741.105  -1700694.506   6623240.581
10 0 59542  74262.000000  0      18024.064  -1156686.216   6780083.691
10 0 59542  74382.000000  0    -698197.918   -579880.905   6817808.211
10 0 59542  74502.000000  0   -1391948.228     19378.640   6735754.761
10 0 59542  74622.000000  0   -2050826.325    630136.545   6535353.383
10 0 59542  74742.000000  0   -2663228.755   1241023.325   6220100.375
10 0 59542  74862.000000  0   -3218554.089   1840466.445   5795501.373
10 0 59542  74982.000000  0   -3707388.949   2416909.148   5268981.756
10 0 59542  75102.000000  0   -4121672.293   2959034.695   4649763.288
10 0 59542  75222.000000  0   -4454833.927   3455990.802   3948707.840
10 0 59542  75342.000000  0   -4701905.064   3897609.556   3178130.447
10 0 59542  75462.000000  0   -4859596.994   4274618.743   2351584.097
10 0 59542  75582.000000  0   -4926346.724   4578840.489   1483620.132
10 0 59542  75702.000000  0   -4902327.310   4803370.439    589526.553
10 0 59542  75822.000000  0   -4789423.184   4942731.650   -314948.219
10 0 59542  75942.000000  0   -4591171.810   4993002.149  -1213881.246
10 0 59542  76062.000000  0   -4312669.361   4951911.133  -2091466.216
10 0 59542  76182.000000  0   -3960445.389   4818900.440  -2932298.937
10 0 59542  76302.000000  0   -3542310.718   4595150.446  -3721654.022
10 0 59542  76422.000000  0   -3067181.126   4283570.368  -4445743.919
10 0 59542  76542.000000  0   -2544883.832   3888754.915  -5091956.104
10 0 59542  76662.000000  0   -1985952.246   3416910.318  -5649065.556
10 0 59542  76782.000000  0   -1401412.355   2875750.323  -6107421.776
10 0 59542  76902.000000  0    -802564.743   2274363.457  -6459105.733
10 0 59542  77022.000000  0    -200767.826   1623056.483  -6698054.661
10 0 59542  77142.000000  0     392773.481    933177.158  -6820156.001
10 0 59542  77262.000000  0     967211.084    216919.107  -6823311.281
10 0 59542  77382.000000  0    1512248.211   -512889.866  -6707468.653
10 0 59542  77502.000000  0    2018319.269  -1243012.459  -6474621.997
10 0 59542  77622.000000  0    2476754.029  -1960035.596  -6128780.435
10 0 59542  77742.000000  0    2879924.704  -2650610.775  -5675906.912
10 0 59542  77862.000000  0    3221374.129  -3301699.920  -5123827.498
10 0 59542  77982.000000  0    3495922.643  -3900822.826  -4482105.939
10 0 59542  78102.000000  0    3699748.917  -4436297.284  -3761887.259
10 0 59542  78222.000000  0    3830446.181  -4897470.369  -2975714.656
10 0 59542  78342.000000  0    3887052.717  -5274937.349  -2137318.406
10 0 59542  78462.000000  0    3870052.562  -5560741.326  -1261377.915
10 0 59542  78582.000000  0    3781347.163  -5748546.787   -363263.362
10 0 59542  78702.000000  0    3624197.652  -5833783.886    541239.367
10 0 59542  78822.000000  0    3403138.703  -5813758.375   1436213.089
10 0 59542  78942.000000  0    3123867.090  -5687724.525   2305899.171
10 0 59542  79062.000000  0    2793105.252  -5456916.632   3134984.050
10 0 59542  79182.000000  0    2418445.316  -5124541.669   3908875.165
10 0 59542  79302.000000  0    2008178.560  -4695732.684   4613962.512
10 0 59542  79422.000000  0    1571113.220  -4177463.512   5237860.338
10 0 59542  79542.000000  0    1116386.347  -3578427.840   5769624.401
10 0 59542  79662.000000  0     653271.883  -2908884.458   6199941.064
10 0 59542  79782.000000  0     190991.349  -2180474.353   6521283.520
10 0 59542  79902.000000  0    -261468.677  -1406013.888   6728036.302
10 0 59542  80022.000000  0    -695529.751   -599267.653   6816588.432
10 0 59542  80142.000000  0   -1103182.969    225297.603   6785393.261
10 0 59542  80262.000000  0   -1477136.100   1052772.311   6634993.514
10 0 59542  80382.000000  0   -1810943.588   1868072.790   6368012.199
10 0 59542  80502.000000  0   -2099118.149   2656215.340   5989109.954
10 0 59542  80622.000000  0   -2337221.725   3402592.119   5504908.525
10 0 59542  80742.000000  0   -2521934.639   4093243.886   4923881.680
10 0 59542  80862.000000  0   -2651102.690   4715126.215   4256213.650
10 0 59542  80982.000000  0   -2723759.824   5256363.027   3513625.258
10 0 59542  81102.000000  0   -2740125.851   5706481.705   2709169.925
10 0 59542  81222.000000  0   -2701579.024   6056623.556   1857003.435
10 0 59542  81342.000000  0   -2610604.409   6299725.436    972131.632
10 0 59542  81462.000000  0   -2470718.378   6430667.704     70140.416
10 0 59542  81582.000000  0   -2286371.662   6446384.553   -833086.659
10 0 59542  81702.000000  0   -2062833.497   6345933.951  -1721658.240
10 0 59542  81822.000000  0   -1806057.910   6130521.395  -2579966.436
10 0 59542  81942.000000  0   -1522536.806   5803478.143  -3392966.074
10 0 59542  82062.000000  0   -1219145.929   5370200.734  -4146439.876
10 0 59542  82182.000000  0    -902986.521   4838050.273  -4827246.337
10 0 59542  82302.000000  0    -581226.355   4216215.969  -5423543.634
10 0 59542  82422.000000  0    -260943.471   3515546.811  -5924988.711
10 0 59542  82542.000000  0      51024.218   2748353.312  -6322907.569
10 0 59542  82662.000000  0     348219.404   1928185.116  -6610433.306
10 0 59542  82782.000000  0     624693.627   1069591.147  -6782613.725
10 0 59542  82902.000000  0     875122.078    187863.415  -6836488.228
10 0 59542  83022.000000  0    1094902.682   -701230.886  -6771132.949
10 0 59542  83142.000000  0    1280237.962  -1581725.389  -6587673.409
10 0 59542  83262.000000  0    1428198.981  -2437733.088  -6289266.465
10 0 59542  83382.000000  0    1536771.606  -3253726.058  -5881053.274
10 0 59542  83502.000000  0    1604883.138  -4014815.047  -5370081.326
10 0 59542  83622.000000  0    1632408.850  -4707022.285  -4765192.336
10 0 59542  83742.000000  0    1620159.269  -5317540.339  -4076879.908
10 0 59542  83862.000000  0    1569847.183  -5834976.672  -3317118.587
10 0 59542  83982.000000  0    1484034.079  -6249576.560  -2499162.867
10 0 59542  84102.000000  0    1366058.578  -6553418.340  -1637319.993
10 0 59542  84222.000000  0    1219947.636  -6740576.433   -746700.080
10 0 59542  84342.000000  0    1050310.911  -6807247.614    157052.296
10 0 59542  84462.000000  0     862223.184  -6751835.237   1058039.240
10 0 59542  84582.000000  0     661095.914  -6574990.464   1940397.186
10 0 59542  84702.000000  0     452542.472  -6279607.969   2788586.336
10 0 59542  84822.000000  0     242239.310  -5870774.355   3587673.555
10 0 59542  84942.000000  0      35786.565  -5355672.672   4323600.358
10 0 59542  85062.000000  0    -161427.117  -4743447.930   4983433.040
10 0 59542  85182.000000  0    -344352.682  -4045034.556   5555590.442
10 0 59542  85302.000000  0    -508398.332  -3272951.452   6030045.300
10 0 59542  85422.000000  0    -649534.861  -2441067.598   6398495.209
10 0 59542  85542.000000  0    -764386.369  -1564347.007   6654499.762
10 0 59542  85662.000000  0    -850304.735   -658577.659   6793587.286
10 0 59542  85782.000000  0    -905427.079    259914.152   6813329.401
10 0 59542  85902.000000  0    -928714.662   1174558.280   6713380.805
10 0 59542  86022.000000  0    -919971.872   2068839.098   6495484.801
10 0 59542  86142.000000  0    -879845.906   2926593.048   6163444.780
10 0 59542  86262.000000  0    -809807.519   3732301.334   5723062.291
99
